[{"OBJECT_NAME":"PROTOMETHEE","OBJECT_ID":"2023-174BT","EPOCH":"2026-03-09T23:28:08.029344","MEAN_MOTION":15.30202663,"ECCENTRICITY":0.00088339,"INCLINATION":97.3826,"RA_OF_ASC_NODE":147.9552,"ARG_OF_PERICENTER":148.5993,"MEAN_ANOMALY":211.5776,"EPHEMERIS_TYPE":0,"CLASSIFICATION_TYPE":"U","NORAD_CAT_ID":58321,"ELEMENT_SET_NO":999,"REV_AT_EPOCH":12979,"BSTAR":0.00015715731,"MEAN_MOTION_DOT":4.52e-5,"MEAN_MOTION_DDOT":0},{"OBJECT_NAME":"STARLINK-35529","OBJECT_ID":"2025-245AB","EPOCH":"2026-03-09T22:14:37.857120","MEAN_MOTION":15.30209425,"ECCENTRICITY":0.00010224,"INCLINATION":53.158,"RA_OF_ASC_NODE":282.7297,"ARG_OF_PERICENTER":81.6798,"MEAN_ANOMALY":278.4319,"EPHEMERIS_TYPE":0,"CLASSIFICATION_TYPE":"U","NORAD_CAT_ID":66259,"ELEMENT_SET_NO":999,"REV_AT_EPOCH":2129,"BSTAR":0.00093163635,"MEAN_MOTION_DOT":0.00027343,"MEAN_MOTION_DDOT":0}]
